STARLINK-31448          
1 59611U 24080L   26068.30660454 -.00000110  00000+0  55219-5 0  9995
2 59611  43.0048  36.6460 0001473 247.8128 112.2567 15.27580783104516
FLOCK 4G-6              
1 62660U 25009BD  26068.71061311  .00012261  00000+0  45910-3 0  9991
2 62660  97.3980 150.7943 0002380 348.2637  11.8546 15.27432125121307
